{
    "links": {
        "self": "http://www.neowsapp.com/rest/v1/neo/3893453?api_key=iIulBulltgU6a56xZRHN4H3l9WmuAYTsLGpBGhQ2"
    },
    "id": "3893453",
    "neo_reference_id": "3893453",
    "name": "(2019 WA2)",
    "designation": "2019 WA2",
    "nasa_jpl_url": "http://ssd.jpl.nasa.gov/sbdb.cgi?sstr=3893453",
    "absolute_magnitude_h": 24.4,
    "estimated_diameter": {
        "kilometers": {
            "estimated_diameter_min": 0.0350392641,
            "estimated_diameter_max": 0.0783501764
        },
        "meters": {
            "estimated_diameter_min": 35.0392641108,
            "estimated_diameter_max": 78.3501764334
        },
        "miles": {
            "estimated_diameter_min": 0.0217723826,
            "estimated_diameter_max": 0.0486845275
        },
        "feet": {
            "estimated_diameter_min": 114.9582192654,
            "estimated_diameter_max": 257.0543928497
        }
    },
    "is_potentially_hazardous_asteroid": false,
    "close_approach_data": [
        {
            "close_approach_date": "2019-11-24",
            "close_approach_date_full": "2019-Nov-24 23:34",
            "epoch_date_close_approach": 1574638440000,
            "relative_velocity": {
                "kilometers_per_second": "11.4101712493",
                "kilometers_per_hour": "41076.6164973115",
                "miles_per_hour": "25523.4120674545"
            },
            "miss_distance": {
                "astronomical": "0.1150065041",
                "lunar": "44.7375300949",
                "kilometers": "17204728.049506267",
                "miles": "10690522.2838578046"
            },
            "orbiting_body": "Earth"
        }
    ],
    "orbital_data": {
        "orbit_id": "2",
        "orbit_determination_date": "2019-12-02 04:56:21",
        "first_observation_date": "2019-11-24",
        "last_observation_date": "2019-12-02",
        "data_arc_in_days": 8,
        "observations_used": 51,
        "orbit_uncertainty": "8",
        "minimum_orbit_intersection": ".113273",
        "jupiter_tisserand_invariant": "4.383",
        "epoch_osculation": "2458812.5",
        "eccentricity": ".2786800947260101",
        "semi_major_axis": "1.525719578130401",
        "inclination": "20.77853194728208",
        "ascending_node_longitude": "62.12222964653499",
        "orbital_period": "688.3518843303099",
        "perihelion_distance": "1.100531901571693",
        "perihelion_argument": ".7218625310522313",
        "aphelion_distance": "1.95090725468911",
        "perihelion_time": "2458814.330326034094",
        "mean_anomaly": "359.042760850557",
        "mean_motion": ".5229883264578263",
        "equinox": "J2000",
        "orbit_class": {
            "orbit_class_type": "AMO",
            "orbit_class_description": "Near-Earth asteroid orbits similar to that of 1221 Amor",
            "orbit_class_range": "1.017 AU < q (perihelion) < 1.3 AU"
        }
    },
    "is_sentry_object": false
}